,University,Motto,Motto in English,Type,Established,Budget,Rector,Academic staff,Administrative staff,Students,Location,Affiliations,Website,Chancellor,President,Campus,Colours,Former name,Parent institution,Vice-president,Address,Undergraduates,Postgraduates,Doctoral students,Colors,Nobel Laureates,Other students,Former names,Other name,Language,Professors,Mascot,Dean,Director,Alumni,Nobel laureates,Athletics,Chairperson,Founder,Academic affiliation,Affiliation,Endowment,Latitude,Longitude
0,/wiki/RWTH_Aachen,Zukunft denken [1],Thinking the Future,Public,10 October 1870,€ 900 million [2],Ulrich Rüdiger,"5,913 [2]","3,351 [2]","45,628","Aachen ,  North Rhine-Westphalia ,  Germany",Domestic: DFG German Excellence Initiative TU9 International: ALMA CESAER IDEA League SEFI TIME UNITECH International PEGASUS EASN,rwth-aachen.de,,,,,,,,,,,,,,,,,,,,,,,,,,,,,,50.776351,6.083862
1,/wiki/University_of_Bamberg,,,Public,1647 (initial) 1972 (re-founded),€ 83.8 million [1],,"1,608 [1]",568 [1],"13,119 [1]","Bamberg ,  Bavaria ,  Germany",,www .uni-bamberg .de /en /,Dagmar Steuer-Flieser,Godehard Ruppert  [ de ],,,,,,,,,,,,,,,,,,,,,,,,,,,,49.8926723,10.8876149
2,/wiki/University_of_Bayreuth,,,Public,1975,€ 150 million [1],,"1,452 [3]",954 [3],"13,497 [4]","Bayreuth ,  Bavaria ,  Germany",Santander Network,www.uni-bayreuth.de,Dr. Markus Zanner,Prof. Dr. Stefan Leible [2],Urban,Green and white            ,,,,,,,,,,,,,,,,,,,,,,,,,,49.9427202,11.5763079
3,/wiki/Berlin_International_University_of_Applied_Sciences,,,Private,2012,,,,,,"Salzufer 6, 10587 ,  Berlin ,  Germany",,https://www.berlin-international.de/en/,"Turgut Tülü, MBA",Prof. Dr. Dr. h.c. mult. Hans-Dieter Klingemann,Urban,,BAU International Berlin - University of Applied Sciences,BAU Global Network,Prof. Dr. Peter Mantel,"Salzufer 6, 10587 ,  Berlin ,  Germany",,,,,,,,,,,,,,,,,,,,,,52.516004,13.3278615
4,/wiki/Berlin_University_of_the_Arts,,,Public,1696,€ 85.6 million [1] : 34,,473 [1] : 35,329 [1] : 36,"3,535 [2]","Berlin ,  Germany",,www .udk-berlin .de,,Martin Rennert,Urban,,,,,,,,,,,,,,,,,,,,,,,,,,,52.5170365,13.3888599
5,/wiki/Free_University_of_Berlin,"Veritas ,  Iustitia ,  Libertas  ( Latin )","Truth ,  Justice ,  Liberty",Public,1948,€ 510.2 million [1],,"2,786 [1]","2,357 [1]","31,500 (2016) [2]","Kaiserswerther Straße 16–18 ,  Berlin ,  Berlin ,  Germany","UNICA ,  EUA ,  German Excellence Universities ,  DFG ,  U15 ,  Charité – Universitätsmedizin Berlin",www.fu-berlin.de,,Günter M. Ziegler  (2018–present),Suburban and urban   1.8 km 2  (180 ha),,,,,"Kaiserswerther Straße 16–18 ,  Berlin ,  Berlin ,  Germany","20,755 (2015) [1]","8,787 (2015) [1]","4,406 (2015) [1]",      Blue          Green,,,,,,,,,,,,,,,,,,52.4479315,13.28574525
6,/wiki/Humboldt_University_of_Berlin,Universitas litterarum  ( Latin ),The Entity of Sciences,Public,"October 15, 1810 ; 209 years ago  ( 1810-10-15 ) [1]",€ 397.8 million [2],,"2,403 [2]","1,516 [2]","32,553 [2]","Berlin ,  Germany",German Universities Excellence Initiative     UNICA     U15     Atomium Culture     EUA,www.hu-berlin.de,,Sabine Kunst,Urban  and  Suburban,,,,,,"18,712 [3]","10,881 [3]","2,951 [3]","Blue and white    
   
   
     
     
   
     
   
     
   
     
",55 [4],,,,,,,,,,,,,,,,,52.5170365,13.3888599
7,/wiki/Technical_University_of_Berlin,Wir haben die Ideen für die Zukunft  ( German ),We've got the brains for the future [1],Public,"1770 (Königliche Bergakademie zu Berlin)
 1799 (Königliche Bauakademie zu Berlin)
1879 (Königlich Technische Hochschule zu Berlin)
 
1946 as Technische Universität Berlin","€492,1 million (2017) [2]",,"3,120 [3]","2,258 [3]","34,428 [3]","Berlin ,  Berlin ,  Germany","TIME ,  TU9 ,  EUA ,  CESAER ,  DFG ,  SEFI ,  PEGASUS ,  German Excellence Initiative ,  Berlin University Alliance",www.tu-berlin.de,,Christian Thomsen  (since 2014),Urban,,,,,,,,,,,,,,,,,,,,,,,,,,,52.5170365,13.3888599
8,/wiki/University_of_Bielefeld,,,Public,"September 5, 1969",€ 230 million [1],Gerhard Sagerer,"1,387 [2]","1,100 [2]","24,255 [2]","Bielefeld ,  North Rhine-Westphalia ,  Germany",,www.uni-bielefeld.de,Dr. Stephan Becker,,,,,,,,,,,,,,,,,,,,,,,,,,,,,52.02307,8.53321
9,/wiki/Ruhr_University_Bochum,menschlich – weltoffen – leistungsstark ( German ) [1],People-centred – Cosmopolitan – High-performance  [2],Public,1962,€ 539.1 million [3],Axel Schölmerich [4],"3,324 [5]","2,378 [5]","42,425 [5]","Bochum ,  North Rhine-Westphalia ,  Germany","UA Ruhr,  DAAD ,  DFG ,  Utrecht Network , MAUI Network, AEN Network,  NOHA Network",www.ruhr-uni-bochum.de,Christina Reinhardt [4],,Urban / Suburban    Campus area 4.5 sq.km [8],,,,,,"22,458 [6]","9,814 [6]","3,619 [6]",,,"7,223 (International Students) [7]",,,,,,,,,,,,,,,,51.4818111,7.2196635
10,/wiki/University_of_Bonn,,,Public,18 October 1818,€571.8 million [1],Michael Hoch,"4,537 [1]","1,759 [1]","35,619 [1]","Bonn ,  North Rhine-Westphalia ,  Germany",EUA,www .uni-bonn .de,,,Urban,,,,,,,,,,,,,,,,,,,,,,,,,,,50.735851,7.10066
11,/wiki/Brandenburg_University_of_Technology,"Wir forschen, lehren und lernen aus Leidenschaft. ( German )","We research, teach and study with passion.",Public,1991; 2013 (reestablished),€ 121.7 million (2018) [1],,652 [1],680 [1],"8,224 [3]","Cottbus  and  Senftenberg ,  Brandenburg ,  Germany",,www .b-tu .de,,Christiane Hipp [2],,,,,,,,,,,,,,,,,,,,,,,,,,,,51.5221532,13.98591658
12,/wiki/Braunschweig_University_of_Technology,,,Public,1745,€  335 million [1],,about 241 [2],"1,458 [3] 3,684 [3]","19,981 [4]","Braunschweig ,  Lower Saxony ,  Germany","TU9 ,  CESAER ,  PEGASUS",tu-braunschweig.de,,Anke Kaysser-Pyzalla  [ de ],,,,,,,,,,,,,Collegium Carolinum,,,,,,,,,,,,,,,52.2646577,10.5236066
13,/wiki/University_of_Bremen,,,Public,1971,€ 325.8 million [1] : 37,Bernd Scholz-Reiter,"2,330 [1] : 27","1,185 [1] : 27","19,173 [1] : 3","  Free Hanseatic City of Bremen , Bremen ,  Germany",,www.uni-bremen.de,,,Urban,,,,,,,,,,,,,,,,,,,,,,,,,,,53.0758196,8.8071646
14,/wiki/Jacobs_University_Bremen,Inspiration is a Place,,Private,2001  ( 2001 ),,,251 (of which 76 are Professors),170 (2018),1466 (2018) [1],"  State of Bremen , Bremen ,  Germany",,jacobs-university .de,,Prof. Dr.-Ing. Michael Hülsmann,"Suburban, 80 acres (0.32 km 2 )",,International University Bremen (IUB),,,,867 (2018) [1],232 (2018) [1],259 (2018) [1],,,74 (2018) [1],,JU Bremen or JU,English,,,,,,,,,,,,,53.0758196,8.8071646
15,/wiki/Chemnitz_University_of_Technology,,,Public,1836,€ 178.1 million [1],,"1,468 [1]",808 [1],"11,406 [1]","Chemnitz ,  Saxony ,  Germany",,www.tu-chemnitz.de,Eberhard Alles,Gerd Strohmeier,,,,,,,,,,,,,,,,,,,,,,,,,,,,50.8322608,12.9252977
16,/wiki/Clausthal_University_of_Technology,,,Public,1775,€ 120.6 million [1],Prof. Dr. Thomas Hanschke,85 [1],1050 [1],"4,093 [1]","Clausthal-Zellerfeld ,  Lower Saxony ,  Germany",,www.tu-clausthal.de,,,,      Green,,,,,,,,,,,,,,,,,,,,,,,,,,51.8070405,10.3364483
17,/wiki/University_of_Cologne,,,,1388,€ 725.2 million [1],Axel Freimuth,"7,393 [1]",,"48,962 [1]","Cologne ,  North Rhine-Westphalia ,  Germany",,www.uni-koeln.de,,,,,,,,,,,,,,,,,,,,,,,,,,,,,,50.938361,6.959974
18,/wiki/Technische_Universit%C3%A4t_Darmstadt,,,Public,1877 [1],€454.3 million (2018) [2],,"2,593 [2]",1.909 [2],25.889 [2],"Darmstadt ,  Hesse ,  Germany","German Universities Excellence Initiative ,  TU9 ,  CLUSTER ,  CESAER ,  T.I.M.E. ,  EAIE ,  FGU ,  EIT ,  EUA , UNITE!, CAST, CRISP, Gauß-Allianz
",www.tu-darmstadt.de,,Tanja Brühl  [ de ] [3],Urban / Suburban,,,,,,,,,,,,Technische Hochschule Darmstadt,,,,,,,,,,,,,,,49.872775,8.651177
19,/wiki/Technical_University_of_Dortmund,,,Public,16-Dec-68,€ 307 million [1] : 38,Ursula Gather,"2,535 [1] : 33","1,324 [1] : 33","34,235 [1] : 18","Dortmund ,  North Rhine-Westphalia ,  Germany",UA Ruhr - University Alliance Ruhr,www.tu-dortmund.de,,,Urban / Suburban,,,,,,,,,,,,Universität Dortmund,,,,,,,,,,,,,,,51.5142273,7.4652789
20,/wiki/Dresden_University_of_Technology,Wissen schafft Brücken.  ( German ),Knowledge builds bridges,Public,1828,€  577.8 million (2017) [1] : 87,,"5,751 [1] : 85","2,470 [1] : 85","32,389 [2]","Dresden ,  Saxony ,  Germany","German Universities Excellence Initiative PEGASUS   TIME   CESAER  TU9   
 DRESDEN-concept",tu-dresden.de,,Hans Müller-Steinhagen  [ de ],Urban,,,,,,,,,,,,,,,,,,,,,,,,,,,51.0493286,13.7381437
21,/wiki/University_of_Duisburg-Essen,Offen im Denken,Open-minded,Public,"1654, re-established on 1 January 2003",€483 million [1],Ulrich Radtke  [ de ],"4,062 [1]","1,581 [1]","43,043 (2017) [2]","Duisburg  and  Essen ,  North Rhine-Westphalia ,  (Germany)","Aurora , UAMR – University Alliance Metropolis Ruhr, [3]   DAAD ,  DFG ,  IRUN",www.uni-due.de,Rainer Ambrosy,,Urban/Suburban,Blue and white,,,,,,,,,,,,,,,,,,,,,,,,,,51.4428173,6.707225052
22,/wiki/University_of_D%C3%BCsseldorf,,,Public,1965,€ 310 million [1],Anja Steinbeck  [ de ],"3,534 [1]","1,182 [1]","32,069 [1]","Düsseldorf ,  North Rhine-Westphalia ,  Germany",,www.uni-duesseldorf.de,,,,,,,,,,,,,,,,,,,,,,,,,,,,,,51.42793,6.83081
23,/wiki/Catholic_University_of_Eichst%C3%A4tt-Ingolstadt,,,catholic,1980 (as university),,,,,,"Eichstätt  &  Ingolstadt ,  Bavaria ,  Germany",,www.ku.de,,Gabriele Gien,,,,,,,,,,,,,,,,,,,,,,,,,,,,48.76588565,11.4158383
24,/wiki/University_of_Erfurt,,,Public,1379  (closed 1816–1993),€ 59.5 million [1],,358 [1],287 [1],"5,715 [2]","Erfurt ,  Thuringia ,  Germany",,www.uni-erfurt.de,,Walter Bauer-Wabnegg,Urban,,,,,,,,,,,,,,,,,,,,,,,,,,,50.9777974,11.0287364
25,/wiki/University_of_Erlangen-Nuremberg,,,Public,"1742 (first)  November 4, 1743  ( 1743-11-04 )  (moved)  [1] [2]",€ 543.1 million [3] [4],,"4,036 [6]","2,320 [6]","38,771 [7]","Erlangen  and  Nuremberg ,  Bavaria ,  Germany","Domestic:  1.  Bavarian State Ministry for Science, Research and Art   2.  DFG 3.  Excellence Universities International: 1. Top Industrial Managers for Europe 2.  SEFI",fau.eu,Christian Zens [5],Joachim Hornegger [5],Urban,,,,Prof. Dr. Bärbel Kopp (Vice President for Education) Prof. Dr. Günter Leugering (Vice President for Research) Prof. Dr. Kathrin M. Möslein (Vice President for Outreach) Prof. Dr. Friedrich Paulsen (Vice President for People) [5],,,,,       Blue,,,Friedrich-Alexander-Universität Erlangen,,,,,,,,,,,,,,,49.45832195,11.08546
26,/wiki/University_of_Duisburg-Essen,Offen im Denken,Open-minded,Public,"1654, re-established on 1 January 2003",€483 million [1],Ulrich Radtke  [ de ],"4,062 [1]","1,581 [1]","43,043 (2017) [2]","Duisburg  and  Essen ,  North Rhine-Westphalia ,  (Germany)","Aurora , UAMR – University Alliance Metropolis Ruhr, [3]   DAAD ,  DFG ,  IRUN",www.uni-due.de,Rainer Ambrosy,,Urban/Suburban,Blue and white,,,,,,,,,,,,,,,,,,,,,,,,,,51.4428173,6.707225052
27,/wiki/University_of_Flensburg,,,Public,1994,€ 27.7 million [1],,346 [1],133 [1],"5,333 [1]","Flensburg ,  Schleswig-Holstein ,  Germany",,www.uni-flensburg.de,,Werner Reinhart,,,,,,,,,,,,,,,,,,,,,,,,,,,,54.7833021,9.4333264
28,/wiki/Goethe_University_Frankfurt,,,Public,18 October 1914  ( 1914-10-18 ) [1],€  644.6 Mio.  (2018) [2],,"3,055.97  ( FTE , 2018) [2]","2,038.56  ( FTE , 2018) [2]","46,961  (2018) [6]","Campus Westend: Theodor-W.-Adorno-Platz 1 ,  Frankfurt am Main ,  Hesse ,  60323 ,  Germany",,www.goethe-university-frankfurt.de,Albrecht Fester [3],Birgitta Wolff [4],multiple sites,,Königliche Universität zu Frankfurt am Main [1],,"Simone Fulda ,  Rolf van Dick ,  Roger Erb ,  Manfred Schubert-Zsilavecz [5]","Campus Westend: Theodor-W.-Adorno-Platz 1 ,  Frankfurt am Main ,  Hesse ,  60323 ,  Germany 50°7′40″N   8°40′00″E ﻿ / ﻿ 50.12778°N 8.66667°E ﻿ /  50.12778; 8.66667 Coordinates :  50°7′40″N   8°40′00″E ﻿ / ﻿ 50.12778°N 8.66667°E ﻿ /  50.12778; 8.66667","21,864  (2018) [6]","6,910  (2018) [6]","1,817  (2018) [6]",,,"6,256 ( teacher education )  (2018) [6]",,,German,,,,,,,,,,,,,50.12772,8.66888
29,/wiki/Viadrina_University,Ex oriente lux,Light from the east,Public,"1506, closed 1811, refounded 1991",,,579 [1],,"6,647 [1]","Frankfurt (Oder) ,  Brandenburg ,  Germany",,www.europa-uni.de,,Alexander Wöll,"Urban , several locations",,,,,,,,,,,,,,,,,,,,,,,,,,,52.32518245,14.49277685
30,/wiki/Freiberg_University_of_Mining_and_Technology,The University of Resources. Since 1765.,,,1765,,,,,4294 (WS 2017/18) [1],"Freiberg , Baden-Württemberg ,  Saxony",,tu-freiberg.de,p.p. Jens Then,Prof. Klaus-Dieter Barbknecht,,,,,,,,,,,,,,,,,,,,,,,,,,,,50.9169415,13.3428889
31,/wiki/Zeppelin_University,"""Bridging Business, Culture and Politics""",,Private  –  Research,Jun-03,,,,224 (2018),"1,060 (2018)","Friedrichshafen ,  Baden-Württemberg ,  Germany",,www.zeppelin-university.com,,Prof. Dr. Insa Sjurts,"Lake Campus ,  FN ZF Campus , FN",,,,,,,,,,,,,,,28 (2019),,,,,,,,,,,,47.6505715,9.4797531
32,/wiki/University_of_Freiburg,Die Wahrheit wird euch frei machen,The Truth Will Set You Free,Public,1457,€ 339.8 million [1],Hans-Jochen Schiewer  [ de ],"2,657 [2]","2,033 [2]","24,612 [3]","Freiburg im Breisgau ,  Baden-Württemberg ,  Germany",U15 EUA IFPU EUCOR LERU,www.uni-freiburg.de,,,University town,,,,,,,,,"Blue, Red, White                   ",,,,,,,,,,,,,,,,,,47.9960901,7.8494005
33,/wiki/University_of_Giessen,,,Public,1607,€ 223 million [1],Joybrato Mukherjee,"3,039 [2]","2,394 [2]","28,454 [2]","Gießen ,  Hesse ,  Germany","German Academic Exchange Service (DAAD) ,  German Research Council (DFG)",www.uni-giessen.de,,,,,,,,,,,,Blue and white            ,,,,,,,,,,,,,,,,,,50.5862066,8.6742306
34,/wiki/University_of_G%C3%B6ttingen,In publica commoda ( Latin ) [1],For the good of all,Public,1734,€ 1.233 billion [2],,"4,241 (2017) [3]","7,752 (2017) [3]","31,619 (2017-2018) [4]","Göttingen ,  Lower Saxony ,  Germany",German Excellence Universities   Coimbra Group   U15   EUA  U4 Network Guild of European Research-Intensive Universities,www.uni-goettingen.de,,Ulrike Beisiegel,University town,,,,,,,,733 (2013-2017),,,,,,,,,,,,,,,,,,,51.5327604,9.9352051
35,/wiki/University_of_Greifswald,""" Wissen lockt. Seit 1456 "" (""The Draw of Knowledge. Since 1456"") [1]",,Public,"1456,  Holy Roman Empire    (teaching since 1436) [2]",€ 81.3 million [3],Johanna Eleonore Weber (352nd),2949 [3],3343 [3],"10,179 [4]","Greifswald ,  Mecklenburg-Vorpommern ,  Germany","CBUR,  DAAD ,  DFG ,  EUA , HRK",https://www.uni-greifswald.de/en/,,,Urban,,,,,,,,,,,,,,,,,,,,,,,,,,,54.095791,13.3815238
36,/wiki/University_of_Hagen,Ipsa Scientia Potestas Est,Knowledge Itself Is Power,Public,1974,,Ada Pellert,"1,824 [1]",,76.689 (winter semester 2015/16) [2],"Hagen ,  North Rhine-Westphalia ,  Germany",European Association of Distance Teaching Universities     ACQUIN     AQAS     FIBAA     EUA,www.fernuni-hagen.de,Regina Zdebel,,Urban     Distance education,,,,,,,,,Blue  and  White              ,,,,,,,,,,,,,,,,,,51.3582945,7.473296
37,/wiki/University_of_Halle-Wittenberg,Zukunft mit Tradition,Future with Tradition,Public,1502,€ 182.9 million [1],Christian Tietje  [ de ],663 [1],710 [1],"19,319 [2]","Halle ,  Saxony-Anhalt ,  Germany",Global Compact,www.uni-halle.de,,,Urban,,,,,,,,,Emerald green      ,,,,,,,Lions,,,,,,,,,,,51.4825041,11.9705452
38,/wiki/University_of_Hamburg,"Der Forschung, der Lehre, der Bildung","For research, for teaching, for education",Public,1919 ; 100 years ago  ( 1919 ),€ 665 million [1],,"5,382 [1]","7,441 [1]","43,636 [1]","Hamburg ,  Germany","EUA ,  Campus Europae ,  German U15",www.uni-hamburg.de,Martin Hecht,Dieter Lenzen  [ de ],Urban,Red and white            ,,,,,,,"4,946 [1]",,,,,,,,,,,,,,,,,,,53.550341,10.000654
39,/wiki/HafenCity_University_Hamburg,,,Public,2006 ; 13 years ago  ( 2006 ),,,,,,"Hamburg ,  Germany",,http://www.hcu-hamburg.de/,,,Urban,,,,,,,,,,,,,,,,,,,,,,,,,,,53.550341,10.000654
40,/wiki/Hamburg_University_of_Technology,,,Public,1978,€ 128.2 million [1],,673 [1],,"7,832 [1]","Hamburg ,  Germany",CESAER,http://www.tuhh.de/,,Hendrik Brinksma (2018),Urban,,Technische Universität Hamburg,,,,,,,,,,,TUHH,,,,,,,,,,,,,,53.550341,10.000654
41,/wiki/Helmut_Schmidt_University,,,,1973,,,An unknown number of teachers in 4 faculties/departments,,2144,"Hamburg ,   Germany",,www.hsu-hh.de,,Wilfried Seidel,,,,,,,,,,,,,,,,,,,,,,,,,,,,53.550341,10.000654
43,/wiki/Hertie_School_of_Governance,Understand today. Shape tomorrow. [1],,Private,2003,€ 13 million [2],,,,605 [5],"Berlin ,  Germany",,www.hertie-school.org,,Henrik Enderlein,Friedrichstraße,"Red, grey, and white",,,,,,,60 [5],,,,,,,,,"Andrea Römmele, Mark Hallerberg, Christine Reh [3]",Axel Baisch [4],"1,500 [5]",,,,,,,,52.5170365,13.3888599
44,/wiki/Leibniz_University_Hannover,Mit Wissen Zukunft gestalten [4],Shaping the future with knowledge,Public,"May 2, 1831 [1]",€ 447.2 million [5],,"3,046 [6]","1,739 [6]","26,035 [7]","Hanover ,  Lower Saxony ,  Germany",TU9 CESAER Association,www.uni-hannover.de,,Volker Epping  [ de ],,,,,,,,,,,,,"
 Höhere Gewerbeschule (1831) 
 Polytechnische Schule (1847) 
 Königliche Technische Hochschule (1879) 
 Technische Hochschule Hannover (1921) 
 Technische Universität Hannover (1968) 
 Universität Hannover (1978) 
 Gottfried Wilhelm Leibniz Universität Hannover (2006) [1] [2] [3] 
",,,,,,,,,,,,,,,52.3744779,9.7385532
45,/wiki/University_of_Heidelberg,Semper apertus  ( Latin ) [1],Always open,Public,1386 ; 633 years ago  ( 1386 ),€461 million (excl. the medical school) [2],,,"7,392 [3]","30,873 [4]","Heidelberg ,  Baden-Württemberg ,  Germany","
 German Universities Excellence Initiative 
 LERU 
 Coimbra Group 
 U15 
 EUA 
",www .uni-heidelberg .de  ,Holger Schroeter,Bernhard Eitel,Urban /University town and  Suburban,,,,,,"15,289 [4]","11,871 [4]","3,024 [4]",Sandstone red  and  gold            ,,,,,,,,,,,27 [5],,,,,,,49.4093582,8.694724
46,/wiki/University_of_Hildesheim,,,Public,1946,,,560,,"7,500","Hildesheim , Lower Saxony ,  Germany",,www.uni-hildesheim.de/,,Wolfgang-Uwe Friedrich,,,,,,,,,,,,,,,,,,,,,,,,,,,,52.1521636,9.9513046
47,/wiki/University_of_Hohenheim,,,Public,1818,€ 144.2 million [1],Stephan Dabbert,941 [1],"1,100 [1]","9,759 [1]","Stuttgart ,  Baden-Württemberg ,  Germany",,www.uni-hohenheim.de,,,,      Blue,,,,,,,,,,,,,,,,,,,,,,,,,,48.7784485,9.1800132
48,/wiki/Technical_University_of_Ilmenau,The Spirit of Science,,Public,1894,€ 124.2 million [1],,,,"6,248 [2]","Ilmenau ,  Thuringia ,  Germany",,www.tu-ilmenau.de,,,,,,,,,"5,800","1,400",,Green and White,,,,,,,,,,,,"Varsity Football, Men's and Women's Basketball, Swimming, Diving, Field Hockey, Soccer, Track and Field",,,,,,50.6867695,10.9142385
49,/wiki/University_of_Jena,,,Public,1558,€ 372 million [1],,"3,415 [2]","5,151 [2]","18,219 [3]","Jena ,  Thuringia ,  Germany",Coimbra Group   EUA,www.uni-jena.de,,Walter Rosenthal,University town,,,,,,,,,,,,,,,,,,,,,,,,,,,50.9281717,11.5879359
50,/wiki/Kaiserslautern_University_of_Technology,,,Public research university,1970 [1],€ 208.7 million [2],,"2,418 [4]",233 [5],"14,869 [6]","Kaiserslautern ,  Rhineland-Palatinate ,  Germany",,www.uni-kl.de,Stefan Lorenz [3],Helmut J. Schmidt,,,,,,,,,,,,,,,,,,,,,,,,,,,,49.4432174,7.7689951
51,/wiki/Karlsruhe_Institute_of_Technology,,,Public,"Fridericiana Polytechnic: 1825   TU Karlsruhe: 1865   KIT: October 1, 2009","€ 901,7 million [1] : 103",,"5,859 [1] : 108","3,456 [1] : 108","25,196 [1] : 112","Karlsruhe ,  Baden-Württemberg ,  Germany",German Universities Excellence Initiative CLUSTER CESAER ENTREE TU9 EUA EUCOR Helmholtz Association,kit.edu,,Holger Hanselka [2],Urban / Suburban,,,,,,"14,136 [1] : 112","8,181 [1] : 112",664 [1] : 112,"  
     
   
   
   
     
   
   
   
   
   
   
   
     
   
   
   
     
   
  ",,,,,,,,,,,,,Renate Schubert [2],,,,,49.0068705,8.4034195
52,/wiki/University_of_Kassel,,,Public,1971,€ 228.72 million [1],,"2,019 [1]","1,246 [1]","25,043 [1]","Kassel ,  Hesse ,  Germany",,www.uni-kassel.de,Oliver Fromm [2],Reiner Finkeldey [2],,      Ruby,,,,,,,,,,,,,,,,,,,,,,,,,,51.3154546,9.4924096
53,/wiki/University_of_Kiel,Pax optima rerum,Peace is the greatest good,Public,1665,€ 167.1 million [1],,"1,162 [2]","1,129 [2]","26,735 [3]","Kiel ,  Schleswig-Holstein ,  Germany",,www.uni-kiel.de,,Lutz Kipp  [ de ],Urban,,,,,,,,,Purple and white            ,,,,,,,,,,,,,,,,,,54.3227085,10.135555
54,/wiki/University_of_Koblenz-Landau,,,Public,1990,€ 41.5 million [1],,,,"16,479 [2]","Koblenz  and  Landau ,  Rhineland-Palatinate ,    Germany",,www.uni-koblenz-landau.de,Michael Ludewig,May-Britt Kallenrode,,,,,"Harald von Korflesch ,  Gabriele Schaumann",,,,,,,,,,,,,,,,,,,,,,,50.3638081,7.5592278
55,/wiki/University_of_Konstanz,,,Public,1966,€ 188.65 million (2017) [1],Kerstin Krieglstein,"1,067 [1]",850 [1],"11,268  (WS 2018/19) [1]","Konstanz ,  Baden-Württemberg ,  Germany","German Excellence Universities ,  EUA ,  YERUN ,  IBH",www.uni-konstanz.de,,,,,,,,,,,"1,165  (WS 2018/19) [1]",,,,,,,,,,,,,,,,,,,47.659216,9.1750718
56,/wiki/University_of_Leipzig,Aus Tradition Grenzen überschreiten (German),A tradition of crossing boundaries,Public research university,2 December 1409,€ 408.9 million [1],Beate Schücking,"3,234 [1]","1,962 [1]","29,459 [2]","Leipzig ,  Saxony ,  Germany",Utrecht Network,www.uni-leipzig.de,,,Urban,"      Red 
        Light Blue",,,,,,,,,,,,,,,,,,,,,,,,,,51.3406321,12.3747329
57,/wiki/University_of_L%C3%BCbeck,Im Focus das Leben  ( German ),Focus on Life,Public,1964,€ 113.3 million [1],,"2,154 [1]",310 [1],"4,945  WS 2018/19 [3]","Lübeck ,  Schleswig-Holstein ,  Germany",,www.uni-luebeck.de,,Gabriele Gillessen-Kaesbach [2],,,,,,,,,,Ocean green  and  White             [4],,,,,,,,,,,,,,,,,,53.866444,10.684738
58,/wiki/University_of_L%C3%BCneburg,,,Public,1946,€ 103.2 million [1],,710 [1],450 [1],"9,076 [1]","Lüneburg ,  Lower Saxony ,  Germany",,www.leuphana.de,,Sascha Spoun,,,,,,,,,,,,,,,,,,,,,,,,,,,,53.248706,10.407855
59,/wiki/University_of_Magdeburg,,,Public,1993,€ 199.1 million [1],Jens Strackeljan,"1,770 [1]","1,009 [1]","14,181 [1]","Magdeburg ,  Saxony-Anhalt ,  Germany",,www .ovgu .de /unimagdeburg /en /,Jörg Wadzack,,,      Purple,,,,,,,,,,,,,,,,,,,,,,,,,,52.1315889,11.6399609
60,/wiki/University_of_Mainz,Ut omnes unum sint German:  Dass alle eins seien,That they all may be one,Public,1477 (University of Mainz)  Re-opened  1946 (Johannes Gutenberg University Mainz),€ 504 million (2018) [1],,"4,353 [2]","7,825 [2]","32,630","Mainz ,  Rhineland-Palatinate ,  Germany",,www.uni-mainz.de,,Georg Krausch  [ de ],,,,,,,,,,      Red,,,,,,,,,,,,,,,,,,50.0012314,8.2762513
61,/wiki/University_of_Mannheim,In Omnibus Veritas Suprema Lex Esto  ( Latin ),Truth in everything should be the supreme law,Public,1967,€123  million [1],Thomas Puhl,907 (full time) [1],617 (full time) [1],"12,001  (HWS 2017/18) [2]","Mannheim ,  Baden-Württemberg ,  Germany",AACSB ;  AMBA ;  CFA Institute ;  Council on Business & Society ;  DFG ;  EQUIS ;  ENTER ;  German Universities Excellence Initiative ;  IAU ;  IBEA,www.uni-mannheim.de,Barbara Windscheid,,"Urban ( Mannheim Palace ), 74 acres (0.3 km²) [3]",,,,,,"7,173 [2]","4,828 [2]",793 [2],"Mannheim Blue  and  White     
   
     
   
   
     
   
   
    ",,,,,,,,,,,,,,,,,,49.489591,8.467236
62,/wiki/University_of_Marburg,,,Public,"July 1, 1527",€335.6 million [1],,"2,657 [2]","1,794 [2]","26,726 [3]","Marburg ,  Hesse ,  Germany",Compostela Group of Universities,www.uni-marburg.de,Friedhelm Nonne,Katharina Krause  [ de ],University town,,,,,,,,,,,,,,,,,,,,,,,,,,,50.8117327,8.7757742
63,/wiki/Technical_University_of_Munich,Die unternehmerische Universität,The entrepreneurial university,Public,1868  ( 1868 ),€937.6 million (2018)  (without the university hospital) [1],,"6,854 [2]","3,249 [2]","41,000 (2017) [3]","Arcisstraße 21 ,  Munich ,  Bavaria ,  80333 ,  Germany",,www .tum .de,,Thomas F. Hofmann,Urban,,,,,"Arcisstraße 21 ,  Munich ,  Bavaria ,  80333 ,  Germany 48°08′56″N   11°34′01″E ﻿ / ﻿ 48.149°N 11.567°E ﻿ /  48.149; 11.567",,,,      Blue,,,,,,,,,,,,,,Ludwig II of Bavaria,ATHENS EAIE EUA Eurotech GUEI TIME TU9,,,48.14955455,11.56775314
64,/wiki/Ludwig_Maximilian_University_of_Munich,,,Public,1472 (as  University of Ingolstadt  until 1802),€682.0 million  (without the university hospital) [1],Bernd Huber  [ de ],"6,017 [1]","8,066 [1]","51,025 [1]","Munich ,  Bavaria ,  Germany",German Excellence Universities Europaeum LERU,www.en.uni-muenchen.de,,,,Green and White            ,,,,,,,,,42 (October 2019),,,,,,,,,,,,,,,,,48.1371079,11.5753822
65,/wiki/Bundeswehr_University_Munich,,,Public,1973,,,586 (170 full professors) [1],,"3,000  (March 2013) [1]","Neubiberg  (Munich) ,  Bavaria ,  Germany",IAMP,www.unibw.de,,Merith Niehuss  [ de ],Sub-urban 140 hectares (350 acres) [2],,,,,,,,,,,,,,,,,,,,,,,,,,,48.0764239,11.6639514
66,/wiki/Ukrainian_Free_University,,,Private,1921,,Prof. Maria Pryshlak,"65 Assistant, Associate, Full, Visiting  and Honorary",,"graduate  students primarily  from  Ukraine, registered  in MA and  doctoral  programs","Munich , Bavaria, Germany",,www .ufu-muenchen .de,,,Urban,,,,,,,,,blue and  yellow,,,,,,,,,,,,,,,,,,48.1371079,11.5753822
67,/wiki/University_of_M%C3%BCnster,,,Public,16 April 1780,"€ 628,7 million (2015)",Johannes Wessels  [ de ],"5,726 [1]","2,174 [1]","43,790 (As of 2016 [update] ) [2]","Münster ,  North Rhine-Westphalia ,  Germany",,www.uni-muenster.de,Matthias Schwarte,,"Urban , 285 buildings (2003), yearly expenses ~ 559 million Euro",,,,,,,,,RAL  9004 &  RAL  5021              [3],,,,,,,,,,,,,,,,,,51.83586,7.09409
68,/wiki/University_of_Erlangen-Nuremberg,,,Public,"1742 (first)  November 4, 1743  ( 1743-11-04 )  (moved)  [1] [2]",€ 543.1 million [3] [4],,"4,036 [6]","2,320 [6]","38,771 [7]","Erlangen  and  Nuremberg ,  Bavaria ,  Germany","Domestic:  1.  Bavarian State Ministry for Science, Research and Art   2.  DFG 3.  Excellence Universities International: 1. Top Industrial Managers for Europe 2.  SEFI",fau.eu,Christian Zens [5],Joachim Hornegger [5],Urban,,,,Prof. Dr. Bärbel Kopp (Vice President for Education) Prof. Dr. Günter Leugering (Vice President for Research) Prof. Dr. Kathrin M. Möslein (Vice President for Outreach) Prof. Dr. Friedrich Paulsen (Vice President for People) [5],,,,,       Blue,,,Friedrich-Alexander-Universität Erlangen,,,,,,,,,,,,,,,49.45832195,11.08546
69,/wiki/University_of_Oldenburg,Offen für neue Wege,Open for new ways,Public,1973,€ 224.3 million [1],,"1,459 [1]","1,037 [1]","15,220 [1]","Oldenburg ,  Lower Saxony ,  Germany",EUA,www.uni-oldenburg.de,,Hans Michael Piper [2],Urban,,,,,,,,,,,,,,,,,,,,,,,,,,,53.1389753,8.2146017
70,/wiki/University_of_Osnabr%C3%BCck,,,Public,1974,€ 141.1 million [1],,981 [1],734 [1],"14,000 [1]","Osnabrück ,  Lower Saxony ,  Germany",EUA,www.uni-osnabrueck.de,,Susanne Menzel-Riedl [2],Urban,,,,,,,,,,,,,,,,,,,,,,,,,,,52.266837,8.049741
71,/wiki/University_of_Paderborn,Die Universität der Informationsgesellschaft,The University for the Information Society,Public,1972,€ 204 million [1],,"1,151 [1]",667 [1],"20,308 [1]","Paderborn ,  North Rhine-Westphalia ,  Germany","
 EUA 
 DAAD 
 ASIIN 
",www.uni-paderborn.de,,Birgitt Riegraf,Urban,Dark blue and light grey            ,,,,,,,,,,,,,,,,,,,,,,,,,,51.71895955,8.764869778
72,/wiki/University_of_Passau,,,Public,01-Jan-73,€ 53.7 million [1],,683 [2],462 [2],"12,631 [2]","Passau ,  Bavaria ,  Germany",,www.uni-passau.de/en,,Carola Jungwirth,Urban,Orange and grey            ,,,,,,,,,,,,,,,,,,,,,,,,,,48.5748229,13.4609744
73,/wiki/University_of_Potsdam,,,Public,1991,€ 198.3 million [1],,"1,864 [2]",899 [2],"20,428 [3]","Potsdam ,  Brandenburg ,  Germany",,www.uni-potsdam.de,,Oliver Günther,,,,,,,,,,,,,,,,,,,,,,,,,,,,52.4009309,13.0591397
74,/wiki/University_of_Regensburg,,,Public,1962,€ 238.4 million [1],,"1,612 [1]","2,098 [1]","21,088 [2]","Regensburg ,  Bavaria ,  Germany",,www.uni-regensburg.de,,Udo Hebel,Urban,,,,,,,,,,,,,,,,,,,,,,,,,Compostela Group of Universities,,49.0195333,12.0974869
75,/wiki/University_of_Rostock,Traditio et Innovatio,Tradition and Innovation,Public,13 February 1419,€214.4 million [1],Wolfgang D. Schareck [2]   (906th rector),"1,341 [1]",963 [1],"13,766 [1]","Rostock ,  Mecklenburg-Vorpommern ,  (Germany",EUA DFG DAAD,www.uni-rostock.de,Jan Tamm,,Urban,Blue and Black and ,,,,,,,"1,322 [1]",,5,,,,,,,,,,,,,,,,,54.0924445,12.1286127
76,/wiki/Saarland_University,,,Public,1948,€ 357 million [1],,"1,571 [2]","1,181 [2]","17,317 [3]","Saarbrücken  and  Homburg ,  Saarland ,  Germany",,www.uni-saarland.de,,Manfred J. Schmitt,,,,,,,,,,,,,,,,,,,,,,,,,,,,49.31954,7.33433
77,/wiki/University_of_Siegen,Zukunft menschlich gestalten ( German ),Creating a humane future,Public,1972,€134.0 million,Holger Burckhart,"1,380",773,"18,618 (2017) [1]","Siegen ,  North Rhine-Westphalia ,  Germany",,www.uni-siegen.de,Ulf Richter,,Urban / Suburban,,,,,,,,,,,,,,,,,,,,,,,,,,,50.8749804,8.0227233
78,/wiki/German_University_of_Administrative_Sciences_Speyer,,,Public,1947,,,"17 university professors, approx. 100 lecturers",,,"Speyer , Rhineland-Palatinate,  Germany",EMPA EGPA SCEPSTA NASPAA TPC IASIA,www.uni-speyer.de,,Joachim Wieland,Suburban,,,,,,,Approx. 400,,White and yellow           ,,,,,,,,,,,,,,,,,,49.3165553,8.433615
79,/wiki/University_of_Stuttgart,,,Public,1829,EUR  420 million [1],,"3,152 [1]","1,794 [1]","27,686 [2]","Stuttgart ,  Baden-Württemberg ,  Germany",German Universities Excellence Initiative     PEGASUS     TU9     EUA     TIME,www.uni-stuttgart.de,Jan Gerken,Wolfram Ressel,Urban / Suburban,,,,,,13.136 [3],"7,309 [3]","1,682 [3]","Anthracite, Dark Blue (“Mittelblau”) & Light Blue    
   
   
",,,Stuttgart Institute of Technology,,,,,,,,,,,,,,,48.7784485,9.1800132
80,/wiki/University_of_Trier,,,Public,"1970, historical: 1473-1798",€ 140.2 million [1],Michael Jäckel,c. 626 [2],c. 580 [2],"13,751 [2]","Trier ,  Rhineland-Palatinate ,  Germany",,www.uni-trier.de,,,,,,,,,,,,,,,,,,,,,,,,,,,,,,49.7596208,6.6441878
81,/wiki/University_of_T%C3%BCbingen,Attempto!,I dare!,Public,1477  ( 1477 ),€ 532.6 million [1],Bernd Engler,"3,604 [2]","1,375 [2]","28,515  (WS2016/17) [3]","Tübingen ,  Baden-Württemberg ,  Germany","German Universities Excellence Initiative ,  Guild of European Research-Intensive Universities ,  MNU",www.uni-tuebingen.de,,,Urban  ( University town ),                  ,,,,,"c. 21,800  (WS2016/17) [3]","c. 4,600  (WS2016/17) [3]","c. 2,000  (WS2016/17) [3]",,,,,,,,,,,,,,,,,,,48.5236164,9.0535531
82,/wiki/University_of_Ulm,Sciendo – Docendo – Curando,,Public,1967,€ 167 million [1],,"2,469 [1]","1,034 [1]","9,891  SS 2018 [2]","Ulm ,  Baden-Württemberg ,  Germany",,www.uni-ulm.de,,Michael Weber,,,,,,,,,,,,,,,,,,,,,,,,,,"DFG , GUC, NUS",,48.3974003,9.9934336
83,/wiki/University_of_Halle-Wittenberg,Zukunft mit Tradition,Future with Tradition,Public,1502,€ 182.9 million [1],Christian Tietje  [ de ],663 [1],710 [1],"19,319 [2]","Halle ,  Saxony-Anhalt ,  Germany",Global Compact,www.uni-halle.de,,,Urban,,,,,,,,,Emerald green      ,,,,,,,Lions,,,,,,,,,,,51.4825041,11.9705452
85,"/wiki/Bauhaus_University,_Weimar",,,public,1860,,,,,4.072 (2016) [1],"Weimar , Thuringia , Germany",,www.uni-weimar.de,,Winfried Speitkamp,,,,,,,,,,,,,1860 Kunstschule 1919  Staatliches Bauhaus 1954 Hochschule für Architektur und Bauwesen,,,,,,,,,,,,,,,50.9802813,11.3290855
86,/wiki/Witten/Herdecke_University,Zur Freiheit ermutigen – nach Wahrheit streben – soziale Verantwortung fördern,Encourage freedom – Strive for truth – Assume social responsibility,"Private , state-recognized, non-profit",1982,,,,554,2532,"Alfred-Herrhausen-Straße 50, 58448  Witten ,  North Rhine-Westphalia ,  Germany",,https://www.uni-wh.de/en/uwh-international/start/,,Prof. Dr. Martin Butzlaff,,,,,Dipl. oec. Jan Peter Nonnenkamp,,,,,,,,,,,,,,,,,,,,,German Rectors' Conference,approx. 38 Mio. Euro,51.45226925,7.357083803
87,/wiki/University_of_Wuppertal,,,Public,1972,€ 189.4 million [1],Lambert T. Koch,992 [2],581 [2],"20,957 [3]","Wuppertal ,  North Rhine-Westphalia ,  Germany",,www.uni-wuppertal.de,,,Urban,,,,,,"15,072 [3]","4,703 [3]",957 [3],,,,,,,,,,,,,,,,,,,51.264018,7.1780374
88,/wiki/University_of_W%C3%BCrzburg,Veritati,Devoted to the truth,Public,1402  (closed 1415–1582),€ 324.8 million [1],,"2,371 [1]","1,745 [1]","28,878 [1]","Würzburg ,  Bavaria ,  Germany",U15 Coimbra Group,www.uni-wuerzburg.de,Uwe Klug,Alfred Forchel  [ de ],Urban,Blue and White            ,,,,,,,,,,,,,,,,,,,,,,,,,,49.79245,9.932966
